EUTELSAT 8 WEST B       
1 40875U 15039B   25304.68238898 -.00000055  00000+0  00000+0 0  9997
2 40875   0.0713  14.9408 0003976 210.1545  52.8009  1.00271989 37366
EUTELSAT 9B             
1 41310U 16005A   25304.61353544  .00000072  00000+0  00000+0 0  9993
2 41310   0.0562  69.5730 0003965 175.3799  25.1079  1.00270690 35825
EUTELSAT 65 WEST A      
1 41382U 16014A   25304.56155953 -.00000266  00000+0  00000+0 0  9996
2 41382   0.0730  46.3902 0002445 183.3291 307.3988  1.00270958 35240
EUTELSAT 117 WEST B     
1 41589U 16038B   25304.52568806 -.00000002  00000+0  00000+0 0  9990
2 41589   0.0153  98.7355 0000237 197.5592 176.0481  1.00273119 34373
EUTELSAT 172B           
1 42741U 17029B   25304.57444855  .00000005  00000+0  00000+0 0  9996
2 42741   0.0201 175.4287 0000154 227.4724  16.0503  1.00270446 31435
EUTELSAT 7C             
1 44334U 19034B   25304.20391866  .00000059  00000+0  00000+0 0  9996
2 44334   0.0671 185.4463 0003237  13.9886 280.7581  1.00270921  4530
EUTELSAT 5 WEST B       
1 44624U 19067A   25304.68238898 -.00000032  00000+0  00000+0 0  9993
2 44624   0.0690  13.3076 0003243 207.7633  59.8513  1.00270974 22147
EUTELSAT KONNECT        
1 45027U 20005B   25304.61318876  .00000060  00000+0  00000+0 0  9993
2 45027   0.0643  90.7950 0001340 149.9096  27.4390  1.00272606 22035
